     2.100          NAVIGATION                              RINEX VERSION / TYPE
fic2rin                                 09/03/2017 00:10:37 PGM / RUN BY / DATE
                                                            END OF HEADER
27 17  9  2  6  0  0.0  .319229904562D-03  .534328137292D-11  .000000000000D+00
     .430000000000D+02 -.806250000000D+01  .433660920861D-08 -.136741697011D+01
    -.320374965668D-06  .490991270635D-02  .268407166004D-05  .515366997337D+04
     .540000000000D+06  .316649675369D-07  .107809216812D+01 -.949949026108D-07
     .975455616053D+00  .337593750000D+03  .399652461529D+00 -.822748556494D-08
    -.685742849656D-10  .100000000000D+01  .196400000000D+04  .000000000000D+00
     .240000000000D+01  .000000000000D+00  .139698386192D-08  .430000000000D+02
     .532806000000D+06  .400000000000D+01
28 17  9  2  6  0  0.0  .642389990389D-03  .329691829393D-11  .000000000000D+00
     .120000000000D+02  .886250000000D+02  .404016828923D-08 -.477481369610D+00
     .473484396935D-05  .197747604689D-01  .789947807789D-05  .515365878296D+04
     .540000000000D+06 -.212341547012D-06  .118573210044D+00  .186264514923D-07
     .988245017903D+00  .245906250000D+03 -.156478072134D+01 -.822819988041D-08
     .158220876249D-09  .100000000000D+01  .196400000000D+04  .000000000000D+00
     .240000000000D+01  .000000000000D+00 -.111758708954D-07  .120000000000D+02
     .532806000000D+06  .400000000000D+01
29 17  9  2  6  0  0.0  .567806884646D-03 -.432009983342D-11  .000000000000D+00
     .900000000000D+02 -.878125000000D+01  .424803409053D-08 -.101999240586D+00
    -.515952706337D-06  .547933741473D-03  .282377004623D-05  .515357413483D+04
     .540000000000D+06  .111758708954D-07  .114089169808D+01  .372529029846D-08
     .981722651775D+00  .334750000000D+03  .884236213565D+00 -.814891086342D-08
    -.828605943335D-10  .100000000000D+01  .196400000000D+04  .000000000000D+00
     .340000000000D+01  .000000000000D+00 -.102445483208D-07  .900000000000D+02
     .532806000000D+06  .400000000000D+01
30 17  9  2  6  0  0.0  .142737291753D-03 -.204636307899D-11  .000000000000D+00
     .220000000000D+02  .781250000000D+00  .492091926175D-08  .204735153321D+01
     .167638063431D-06  .304821424652D-02  .987760722637D-05  .515363833046D+04
     .540000000000D+06 -.353902578354D-07 -.953394575888D+00  .782310962677D-07
     .946804854085D+00  .182968750000D+03 -.306542851556D+01 -.815819696451D-08
    -.415374444870D-09  .100000000000D+01  .196400000000D+04  .000000000000D+00
     .240000000000D+01  .000000000000D+00  .372529029846D-08  .220000000000D+02
     .532806000000D+06  .400000000000D+01
31 17  9  2  6  0  0.0  .177968759090D-03 -.238742359215D-11  .000000000000D+00
     .100000000000D+03  .925000000000D+01  .451411660250D-08  .187485540853D+01
     .704079866409D-06  .849746458698D-02  .922195613384D-05  .515377167130D+04
     .540000000000D+06  .143423676491D-06 -.979539786358D+00  .122934579849D-06
     .965809770608D+00  .203406250000D+03 -.246257899596D+00 -.791354391658D-08
    -.511449875369D-09  .100000000000D+01  .196400000000D+04  .000000000000D+00
     .340000000000D+01  .000000000000D+00 -.135041773319D-07  .100000000000D+03
     .532806000000D+06  .400000000000D+01
32 17  9  2  6  0  0.0 -.493391416967D-03 -.613908923697D-11  .000000000000D+00
     .630000000000D+02  .637500000000D+01  .499877964781D-08 -.781199499272D+00
     .432133674622D-06  .141689053271D-02  .572949647903D-05  .515375067520D+04
     .540000000000D+06  .186264514923D-08 -.206611930925D+01  .279396772385D-07
     .957550591563D+00  .267125000000D+03 -.254274167238D+01 -.822069956799D-08
     .100361323309D-09  .100000000000D+01  .196400000000D+04  .000000000000D+00
     .240000000000D+01  .000000000000D+00  .931322574615D-09  .630000000000D+02
     .532806000000D+06  .400000000000D+01
29 17  9  2  5 59 44.0  .567806884646D-03 -.432009983342D-11  .000000000000D+00
     .000000000000D+00 -.878125000000D+01  .424803409053D-08 -.104332224805D+00
    -.515952706337D-06  .547932693735D-03  .282377004623D-05  .515357413673D+04
     .539984000000D+06  .111758708954D-07  .114089185022D+01  .372529029846D-08
     .981722641534D+00  .334750000000D+03  .884235378238D+00 -.814891086342D-08
    -.828605943335D-10  .100000000000D+01  .196400000000D+04  .000000000000D+00
     .240000000000D+01  .000000000000D+00 -.102445483208D-07  .000000000000D+00
     .537756000000D+06  .400000000000D+01
31 17  9  2  5 59 44.0  .177968293428D-03 -.238742359215D-11  .000000000000D+00
     .900000000000D+01  .925000000000D+01  .451375944477D-08  .187252213905D+01
     .704079866409D-06  .849746703170D-02  .922195613384D-05  .515377166939D+04
     .539984000000D+06  .143423676491D-06 -.979539673713D+00  .122934579849D-06
     .965809776460D+00  .203406250000D+03 -.246258193642D+00 -.791354391658D-08
    -.511449875369D-09  .100000000000D+01  .196400000000D+04  .000000000000D+00
     .240000000000D+01  .000000000000D+00 -.135041773319D-07  .900000000000D+01
     .537756000000D+06  .400000000000D+01
12 17  9  2  5 59 44.0  .374095048755D-03 -.125055521494D-11  .000000000000D+00
     .200000000000D+01  .800312500000D+02  .381980196723D-08  .146578199449D+01
     .410899519920D-05  .655041378923D-02  .798143446445D-05  .515373214340D+04
     .539984000000D+06 -.189989805222D-06  .952328216864D-01  .726431608200D-07
     .988969801648D+00  .240781250000D+03  .914176009706D+00 -.779568186430D-08
     .532165023952D-10  .100000000000D+01  .196400000000D+04  .000000000000D+00
     .240000000000D+01  .000000000000D+00 -.125728547573D-07  .200000000000D+01
     .538206000000D+06  .400000000000D+01
12 17  9  2  7 59 44.0  .374086201191D-03 -.125055521494D-11  .000000000000D+00
     .100000000000D+02  .872187500000D+02  .382765943738D-08  .251618326655D+01
     .435672700405D-05  .655107444618D-02  .834465026855D-05  .515372872162D+04
     .547184000000D+06 -.763684511185D-07  .951770830447D-01 -.113621354103D-06
     .988971266029D+00  .229625000000D+03  .913916264212D+00 -.760567394971D-08
     .107861635727D-09  .100000000000D+01  .196400000000D+04  .000000000000D+00
     .240000000000D+01  .000000000000D+00 -.125728547573D-07  .100000000000D+02
     .540006000000D+06  .400000000000D+01
29 17  9  2  7 59 44.0  .567775219679D-03 -.432009983342D-11  .000000000000D+00
     .900000000000D+01 -.628125000000D+01  .426946355458D-08  .946626759901D+00
    -.376254320145D-06  .547750969417D-03  .266544520855D-05  .515357351875D+04
     .547184000000D+06  .558793544769D-08  .114083320330D+01  .745058059692D-08
     .981722035886D+00  .338906250000D+03  .883516090677D+00 -.814641075928D-08
    -.842892252703D-10  .100000000000D+01  .196400000000D+04  .000000000000D+00
     .240000000000D+01  .000000000000D+00 -.102445483208D-07  .900000000000D+01
     .540006000000D+06  .400000000000D+01
31 17  9  2  7 59 44.0  .177950598300D-03 -.238742359215D-11  .000000000000D+00
     .100000000000D+02  .215625000000D+01  .443232748137D-08  .292258257752D+01
     .242143869400D-06  .849667657167D-02  .931695103645D-05  .515377339745D+04
     .547184000000D+06 -.135973095894D-06 -.979597292205D+00  .912696123123D-07
     .965807292425D+00  .203031250000D+03 -.246197586409D+00 -.776710924556D-08
    -.320013329840D-09  .100000000000D+01  .196400000000D+04  .000000000000D+00
     .240000000000D+01  .000000000000D+00 -.135041773319D-07  .100000000000D+02
     .540006000000D+06  .400000000000D+01
 1 17  9  2  8  0  0.0  .555184669793D-04 -.454747350886D-12  .000000000000D+00
     .350000000000D+02 -.104406250000D+03  .405409744086D-08 -.252499261251D+01
    -.533834099770D-05  .700843636878D-02  .861100852489D-05  .515368875885D+04
     .547200000000D+06  .000000000000D+00  .213565934397D+01 -.353902578354D-07
     .968329682109D+00  .215906250000D+03  .616342343670D+00 -.782818321811D-08
    -.139291516336D-09  .100000000000D+01  .196400000000D+04  .000000000000D+00
     .240000000000D+01  .000000000000D+00  .558793544769D-08  .350000000000D+02
     .540006000000D+06  .400000000000D+01
 2 17  9  2  8  0  0.0  .339978840202D-03 -.898126018001D-11  .000000000000D+00
     .320000000000D+02 -.109625000000D+03  .453733185523D-08 -.214092842233D+01
    -.555440783501D-05  .170370149426D-01  .710971653461D-05  .515357925415D+04
     .547200000000D+06  .264495611191D-06  .208019772040D+01 -.141561031342D-06
     .947265358753D+00  .234250000000D+03 -.196000634302D+01 -.785889878325D-08
    -.147148986489D-09  .100000000000D+01  .196400000000D+04  .000000000000D+00
     .240000000000D+01  .000000000000D+00 -.204890966415D-07  .320000000000D+02
     .540006000000D+06  .400000000000D+01
 3 17  9  2  8  0  0.0 -.723064877093D-04  .409272615798D-11  .000000000000D+00
     .760000000000D+02  .115625000000D+01  .430946522081D-08  .287281305994D+01
     .109896063805D-06  .932081486098D-03  .100992619991D-04  .515366914177D+04
     .547200000000D+06  .130385160446D-07 -.310518486506D+01  .316649675369D-07
     .960587414927D+00  .184562500000D+03  .373777743149D+00 -.788532845558D-08
     .487163149443D-09  .100000000000D+01  .196400000000D+04  .000000000000D+00
     .240000000000D+01  .000000000000D+00  .232830643654D-08  .760000000000D+02
     .540006000000D+06  .400000000000D+01
 4 17  9  2  8  0  0.0  .193873420358D-04  .625277607469D-11  .000000000000D+00
     .450000000000D+02  .103437500000D+02  .499913680554D-08 -.101292705282D+00
     .534579157829D-06  .123114665039D-01  .245496630669D-05  .515366268158D+04
     .547200000000D+06  .104308128357D-06  .988648941288D+00  .894069671631D-07
     .956785191361D+00  .326000000000D+03  .437037037535D+00 -.868286167604D-08
    -.760745973838D-10  .100000000000D+01  .196400000000D+04  .000000000000D+00
     .240000000000D+01  .630000000000D+02 -.558793544769D-08  .450000000000D+02
     .540006000000D+06  .400000000000D+01
